{
  "norad_id": 52345,
  "name": "STARLINK-3852",
  "history": [
    {
      "epoch": "2026-04-14T18:37:30.235296Z",
      "apogee_km": 541.1261294848464,
      "perigee_km": 538.4641092053225,
      "latitude_deg": 4.5680925028705594e-05,
      "longitude_deg": -85.0359631775499,
      "height_km": 540.6406342598798,
      "semi_major_axis_km": 6917.932119345084,
      "eccentricity": 0.0001924,
      "inclination_deg": 53.2174,
      "raan_deg": 37.2876,
      "arg_perigee_deg": 87.874,
      "mean_anomaly_deg": 272.2473,
      "mean_motion_rev_day": 15.08823076
    },
    {
      "epoch": "2026-04-15T12:06:44.656128Z",
      "apogee_km": 540.7535066481369,
      "perigee_km": 538.8458164343492,
      "latitude_deg": 2.1764884267955754e-05,
      "longitude_deg": 8.663654091152322,
      "height_km": 540.6309519450137,
      "semi_major_axis_km": 6917.936661541243,
      "eccentricity": 0.00013788,
      "inclination_deg": 53.2161,
      "raan_deg": 34.0155,
      "arg_perigee_deg": 86.1379,
      "mean_anomaly_deg": 273.9771,
      "mean_motion_rev_day": 15.0882159
    },
    {
      "epoch": "2026-04-16T18:19:04.802592Z",
      "apogee_km": 540.9993548785778,
      "perigee_km": 538.5891476306397,
      "latitude_deg": 3.557674225183831e-05,
      "longitude_deg": -91.30937656447247,
      "height_km": 540.8229806454676,
      "semi_major_axis_km": 6917.9312512546085,
      "eccentricity": 0.0001742,
      "inclination_deg": 53.2181,
      "raan_deg": 28.3669,
      "arg_perigee_deg": 96.3596,
      "mean_anomaly_deg": 263.7595,
      "mean_motion_rev_day": 15.0882336
    },
    {
      "epoch": "2026-04-17T11:48:18.703296Z",
      "apogee_km": 540.7515421612725,
      "perigee_km": 538.7294465696696,
      "latitude_deg": 2.569307499619017e-05,
      "longitude_deg": 2.3919239379791364,
      "height_km": 540.7921023092448,
      "semi_major_axis_km": 6917.877494365471,
      "eccentricity": 0.00014615,
      "inclination_deg": 53.2199,
      "raan_deg": 25.0943,
      "arg_perigee_deg": 98.8621,
      "mean_anomaly_deg": 261.2537,
      "mean_motion_rev_day": 15.08840947
    },
    {
      "epoch": "2026-04-18T13:14:28.088736Z",
      "apogee_km": 540.3468994415562,
      "perigee_km": 538.8042495374448,
      "latitude_deg": 1.6223278394791022e-05,
      "longitude_deg": -24.950705472664126,
      "height_km": 540.7446011306682,
      "semi_major_axis_km": 6917.7125744895,
      "eccentricity": 0.0001115,
      "inclination_deg": 53.2208,
      "raan_deg": 20.3354,
      "arg_perigee_deg": 110.6895,
      "mean_anomaly_deg": 249.4217,
      "mean_motion_rev_day": 15.08894904
    },
    {
      "epoch": "2026-04-19T11:29:50.943840Z",
      "apogee_km": 541.9952720022138,
      "perigee_km": 537.392424069164,
      "latitude_deg": -3.882139814892629e-05,
      "longitude_deg": -3.873112360449492,
      "height_km": 540.3063578530188,
      "semi_major_axis_km": 6917.830848035688,
      "eccentricity": 0.00033268,
      "inclination_deg": 53.2208,
      "raan_deg": 16.1723,
      "arg_perigee_deg": 82.9962,
      "mean_anomaly_deg": 277.1408,
      "mean_motion_rev_day": 15.08856208
    },
    {
      "epoch": "2026-04-19T22:37:33.953376Z",
      "apogee_km": 541.1706339527045,
      "perigee_km": 538.288512380991,
      "latitude_deg": -6.232435479193245e-05,
      "longitude_deg": -173.34137274546003,
      "height_km": 541.0414679434379,
      "semi_major_axis_km": 6917.866573166847,
      "eccentricity": 0.00020831,
      "inclination_deg": 53.2196,
      "raan_deg": 14.0903,
      "arg_perigee_deg": 106.8143,
      "mean_anomaly_deg": 253.3077,
      "mean_motion_rev_day": 15.0884452
    },
    {
      "epoch": "2026-04-21T20:43:44.368608Z",
      "apogee_km": 540.9587775627933,
      "perigee_km": 538.5333677575181,
      "latitude_deg": -1.922744200912671e-06,
      "longitude_deg": -155.3981077262473,
      "height_km": 540.6515065492315,
      "semi_major_axis_km": 6917.883072660155,
      "eccentricity": 0.0001753,
      "inclination_deg": 53.2188,
      "raan_deg": 5.4703,
      "arg_perigee_deg": 90.4788,
      "mean_anomaly_deg": 269.6405,
      "mean_motion_rev_day": 15.08839122
    },
    {
      "epoch": "2026-04-22T03:05:16.647360Z",
      "apogee_km": 540.9707228907109,
      "perigee_km": 538.493295641113,
      "latitude_deg": -2.7327658443855037e-05,
      "longitude_deg": 107.7669244491842,
      "height_km": 540.6230360623008,
      "semi_major_axis_km": 6917.869009265912,
      "eccentricity": 0.00017906,
      "inclination_deg": 53.219,
      "raan_deg": 4.281,
      "arg_perigee_deg": 89.8036,
      "mean_anomaly_deg": 270.3161,
      "mean_motion_rev_day": 15.08843723
    },
    {
      "epoch": "2026-04-23T01:20:41.859456Z",
      "apogee_km": 540.9629234723043,
      "perigee_km": 538.5658706382246,
      "latitude_deg": -3.1379285469252396e-05,
      "longitude_deg": 128.834906171787,
      "height_km": 540.5253171904162,
      "semi_major_axis_km": 6917.901397055264,
      "eccentricity": 0.00017325,
      "inclination_deg": 53.2189,
      "raan_deg": 0.1181,
      "arg_perigee_deg": 83.5595,
      "mean_anomaly_deg": 276.5594,
      "mean_motion_rev_day": 15.08833127
    },
    {
      "epoch": "2026-04-24T20:16:06.375072Z",
      "apogee_km": 541.3126928673119,
      "perigee_km": 538.217623441753,
      "latitude_deg": -4.544064645294309e-05,
      "longitude_deg": -164.80935966772958,
      "height_km": 540.4741338060195,
      "semi_major_axis_km": 6917.902158154532,
      "eccentricity": 0.0002237,
      "inclination_deg": 53.2167,
      "raan_deg": 352.0888,
      "arg_perigee_deg": 83.1185,
      "mean_anomaly_deg": 277.0061,
      "mean_motion_rev_day": 15.08832878
    },
    {
      "epoch": "2026-04-25T20:06:52.812000Z",
      "apogee_km": 541.1136967768152,
      "perigee_km": 538.3465499274744,
      "latitude_deg": 2.3878152118623352e-05,
      "longitude_deg": -167.942125485802,
      "height_km": 540.5239244755373,
      "semi_major_axis_km": 6917.8671233521445,
      "eccentricity": 0.0002,
      "inclination_deg": 53.2196,
      "raan_deg": 347.6288,
      "arg_perigee_deg": 85.8041,
      "mean_anomaly_deg": 274.318,
      "mean_motion_rev_day": 15.0884434
    }
  ]
}